KUIPER-00176            
1 65788U 25217AC  26004.33336806  .00042176  00000+0  55237-2 0  9998
2 65788  51.9006 327.6879 0001477  88.2863 304.0926 14.79955597  3506
KUIPER-00101            
1 65947U 25228A   26004.13673340  .00008630  00000+0  11579-2 0  9990
2 65947  51.9000 286.0418 0000511  21.5044 338.5940 14.79990683 13675
KUIPER-00113            
1 65948U 25228B   26004.33336806 -.00029384  00000+0 -35320-2 0  9997
2 65948  51.8978 280.2940 0001666  91.4858 335.2679 14.83430310  5154
KUIPER-00117            
1 65949U 25228C   26004.33336806 -.00028016  00000+0 -36284-2 0  9999
2 65949  51.8980 282.6972 0002364 101.0873 211.4634 14.80306145  4341
KUIPER-00121            
1 65950U 25228D   26004.33336806 -.00026270  00000+0 -30850-2 0  9994
2 65950  51.8995 277.6265 0005488 129.7486   2.1181 14.84318074  3096
KUIPER-00122            
1 65951U 25228E   26004.03268046 -.00000154  00000+0  88540-5 0  9996
2 65951  51.9013 288.9946 0001516  78.8954 281.2179 14.79967311 13627
KUIPER-00123            
1 65952U 25228F   26004.20154842  .00000897  00000+0  14660-3 0  9997
2 65952  51.9004 288.2705 0001158 110.2995 249.8092 14.79962798 13642
KUIPER-00124            
1 65953U 25228G   26004.33336806 -.00026722  00000+0 -34868-2 0  9992
2 65953  51.8983 280.1753 0000330  83.5018 215.6434 14.79973883  5662
